[{"OBJECT_NAME":"STARLINK-33703","OBJECT_ID":"2025-065V","EPOCH":"2026-03-09T11:17:43.132704","MEAN_MOTION":15.27589708,"ECCENTRICITY":2.808e-5,"INCLINATION":42.9979,"RA_OF_ASC_NODE":108.5017,"ARG_OF_PERICENTER":175.0836,"MEAN_ANOMALY":185.0018,"EPHEMERIS_TYPE":0,"CLASSIFICATION_TYPE":"U","NORAD_CAT_ID":63418,"ELEMENT_SET_NO":999,"REV_AT_EPOCH":5280,"BSTAR":0.0011684628,"MEAN_MOTION_DOT":0.00032041,"MEAN_MOTION_DDOT":0},{"OBJECT_NAME":"ARIANE 1 DEB","OBJECT_ID":"1979-104G","EPOCH":"2026-03-08T13:02:06.261792","MEAN_MOTION":4.57140093,"ECCENTRICITY":0.55276459,"INCLINATION":19.8541,"RA_OF_ASC_NODE":226.5333,"ARG_OF_PERICENTER":32.2765,"MEAN_ANOMALY":351.9221,"EPHEMERIS_TYPE":0,"CLASSIFICATION_TYPE":"U","NORAD_CAT_ID":25765,"ELEMENT_SET_NO":999,"REV_AT_EPOCH":42071,"BSTAR":0.0019574479,"MEAN_MOTION_DOT":1.113e-5,"MEAN_MOTION_DDOT":0}]
